<?xml version="1.0" encoding="UTF-8"?>
<kml xmlns="http://www.opengis.net/kml/2.2">
  <Document>
    <name>RailTwin canonical cross-border extensions</name>
    <Folder>
      <name>Northeastern</name>
      <Placemark>
        <name>Nong Khai - Vientiane (Khamsavath)</name>
        <description>Nong Khai via the First Thai-Lao Friendship Bridge and Thanaleng to Khamsavath.</description>
        <LineString>
          <tessellate>1</tessellate>
          <coordinates>
            102.730928,17.864496,0
            102.724500,17.869500,0
            102.716000,17.878500,0
            102.714000,17.889000,0
            102.709694,17.903111,0
            102.704000,17.913000,0
            102.695000,17.928000,0
            102.685000,17.944000,0
            102.674722,17.957500,0
          </coordinates>
        </LineString>
      </Placemark>
      <Placemark>
        <name>Ban Phai Na Bun - Nong Bua Junction connector</name>
        <description>Physical Kaeng Khoi bypass connection from Ban Phai Na Bun Junction to the Northeastern main line toward Nong Bua Junction.</description>
        <LineString>
          <tessellate>1</tessellate>
          <coordinates>
            100.982968,14.548742,0
            100.982966,14.548833,0
            100.982913,14.550576,0
            100.982845,14.553764,0
            100.982805,14.554846,0
            100.982702,14.556456,0
            100.982662,14.556928,0
            100.982419,14.562317,0
            100.982351,14.562803,0
            100.982235,14.563216,0
            100.982066,14.563628,0
            100.981845,14.564038,0
            100.981698,14.564254,0
            100.979927,14.566449,0
            100.979639,14.566776,0
            100.979348,14.567040,0
            100.978910,14.567360,0
            100.978679,14.567504,0
            100.978287,14.567694,0
            100.977915,14.567816,0
            100.977530,14.567891,0
            100.977177,14.567926,0
            100.977014,14.567931,0
            100.976647,14.567922,0
            100.976305,14.567880,0
            100.976018,14.567821,0
            100.975770,14.567751,0
            100.975512,14.567662,0
            100.975302,14.567573,0
            100.975101,14.567476,0
            100.974893,14.567358,0
            100.974688,14.567215,0
            100.974485,14.567050,0
            100.974273,14.566860,0
            100.972902,14.565554,0
            100.972803,14.565449,0
            100.972766,14.565430,0
            100.972627,14.565333,0
            100.972549,14.565411,0
            100.971821,14.564683,0
            100.9627994,14.5557708,0
          </coordinates>
        </LineString>
      </Placemark>
      <Placemark>
        <name>Ban Phai Na Bun - Kaeng Khoi Junction connector</name>
        <description>Physical Kaeng Khoi bypass connection from Ban Phai Na Bun Junction to the Northeastern main line toward Kaeng Khoi Junction.</description>
        <LineString>
          <tessellate>1</tessellate>
          <coordinates>
            100.982968,14.548742,0
            100.982966,14.548833,0
            100.982913,14.550576,0
            100.982845,14.553764,0
            100.982805,14.554846,0
            100.982702,14.556456,0
            100.982662,14.556928,0
            100.982419,14.562317,0
            100.982351,14.562803,0
            100.982235,14.563216,0
            100.982066,14.563628,0
            100.981845,14.564038,0
            100.981698,14.564254,0
            100.979927,14.566449,0
            100.979639,14.566776,0
            100.979348,14.567040,0
            100.978910,14.567360,0
            100.978679,14.567504,0
            100.978287,14.567694,0
            100.977915,14.567816,0
            100.977530,14.567891,0
            100.977177,14.567926,0
            100.977014,14.567931,0
            100.976647,14.567922,0
            100.976305,14.567880,0
            100.976018,14.567821,0
            100.975770,14.567751,0
            100.975512,14.567662,0
            100.975302,14.567573,0
            100.975101,14.567476,0
            100.974893,14.567358,0
            100.974688,14.567215,0
            100.974485,14.567050,0
            100.974273,14.566860,0
            100.972902,14.565554,0
            100.972803,14.565449,0
            100.972766,14.565430,0
            100.972627,14.565333,0
            100.972549,14.565411,0
            100.980276,14.573141,0
            100.981229,14.574086,0
            100.981642,14.574495,0
            100.982242,14.575006,0
            100.982735,14.575360,0
            100.984007,14.576052,0
            100.986644,14.577513,0
            100.990089,14.579342,0
            100.994027,14.581501,0
            100.996783,14.582949,0
            100.997677,14.583434,0
            100.998384,14.583739,0
            100.998528,14.583816,0
            100.999248,14.584216,0
            101.000812,14.585065,0
            101.0053349,14.5874804,0
          </coordinates>
        </LineString>
      </Placemark>
    </Folder>
  </Document>
</kml>
